FREGAT DEB              
1 49271U 11037PF  24293.42916619  .00035026  00000+0  88475-1 0  9991
2 49271  51.6229 349.6270 0901014  30.5703 334.4625 12.21693612150369
CSS (WENTIAN)           
1 53239U 22085A   24294.63400369  .00119738  00000+0  11556-2 0  9999
2 53239  41.4684  37.7411 0004643 242.4910 117.5459 15.65300651124396
CSS (MENGTIAN)          
1 54216U 22143A   24294.63400369  .00119738  00000+0  11556-2 0  9990
2 54216  41.4684  37.7411 0004643 242.4910 117.5459 15.65300651111815
TIANZHOU-7              
1 58811U 24013A   24294.63400369  .00119738  00000+0  11556-2 0  9993
2 58811  41.4684  37.7411 0004643 242.4910 117.5459 15.65300651474889
CREW DRAGON 8           
1 59097U 24042A   24294.81676321  .00027946  00000+0  49303-3 0  9996
2 59097  51.6393  53.1353 0009126  88.5934 271.6100 15.50127444 35732
1998-067WL              
1 59561U 98067WL  24294.71053638  .00274701  00000+0  15511-2 0  9995
2 59561  51.6276  38.8495 0005294 341.9941  18.0871 15.77779395 28941
SHENZHOU-18 (SZ-18)     
1 59591U 24078A   24294.63400369  .00119738  00000+0  11556-2 0  9990
2 59591  41.4684  37.7411 0004643 242.4910 117.5459 15.65300651 27777
SZ-17 MODULE            
1 59624U 23164C   24294.69161590  .00229335  00000+0  91831-3 0  9998
2 59624  41.4730  25.5358 0010971  54.6472 305.5399 15.84982109 27304
PROGRESS-MS 27          
1 59913U 24103A   24294.81676321  .00027946  00000+0  49303-3 0  9991
2 59913  51.6393  53.1353 0009126  88.5934 271.6100 15.50127444 22454
CYGNUS NG-21            
1 60378U 24139A   24294.81676321  .00027946  00000+0  49303-3 0  9997
2 60378  51.6393  53.1353 0009126  88.5934 271.6100 15.50127444 11998
PROGRESS-MS 28          
1 60450U 24145A   24294.81676321  .00027946  00000+0  49303-3 0  9995
2 60450  51.6393  53.1353 0009126  88.5934 271.6100 15.50127444 10291
BINAR-4                 
1 60952U 98067WS  24294.70726812  .00810528  00000+0  42967-2 0  9999
2 60952  51.6292  49.3877 0007394 348.0918  11.9906 15.77736129  8173
COSMOGIRLSAT            
1 60953U 98067WT  24294.70551078  .00299333  00000+0  28597-2 0  9998
2 60953  51.6332  50.8926 0003566  78.1159 282.0236 15.65219616  8155
SAKURA                  
1 60954U 98067WU  24294.74033256  .00370286  00000+0  32090-2 0  9996
2 60954  51.6331  50.3743 0003067  55.4584 304.6702 15.67422194  8162
1998-067WV              
1 60955U 98067WV  24294.34917869  .03316208  23197-1  39314-2 0  9991
2 60955  51.6206  48.4545 0012212 335.7275  24.3163 16.11826432  8154
BINAR-2                 
1 60956U 98067WW  24294.61954129  .00614876  00000+0  39970-2 0  9995
2 60956  51.6214  50.2870 0005385   2.7922 357.3105 15.73599483  8143
BINAR-3                 
1 60957U 98067WX  24294.68918671  .00703730  00000+0  37744-2 0  9990
2 60957  51.6231  49.2585 0008426 355.6468   4.4458 15.77751473 10156
1998-067WY              
1 60958U 98067WY  24294.72000844  .00286444  00000+0  28643-2 0  9996
2 60958  51.6359  50.9938 0004009  88.0743 272.0711 15.64108659  8144
SOYUZ-MS 26             
1 61043U 24162A   24294.81676321  .00027946  00000+0  49303-3 0  9993
2 61043  51.6393  53.1353 0009126  88.5934 271.6100 15.50127444477983
CREW DRAGON 9           
1 61447U 24178A   24294.81676321  .00027946  00000+0  49303-3 0  9998
2 61447  51.6393  53.1353 0009126  88.5934 271.6100 15.50127444  3380
CYSAT-1                 
1 61501U 98067WZ  24294.60576725  .00261738  00000+0  38796-2 0  9993
2 61501  51.6380  53.9750 0007878  96.2175 263.9713 15.53766389  1934
DORA                    
1 61502U 98067XA  24294.72820164  .00343643  00000+0  47295-2 0  9996
2 61502  51.6386  53.2926 0006399  66.9434 293.2231 15.55511010  1941
